2026-106D               
1 69100U 26106D   26135.89543416  .00000498  00000+0  33645-4 0  9993
2 69100  97.5062 218.5717 0012136 280.2995  79.6866 15.10959134   118
