{
  "norad_id": 69100,
  "name": "2026-106D",
  "history": [
    {
      "epoch": "2026-05-15T21:29:25.511424Z",
      "apogee_km": 541.6613727624499,
      "perigee_km": 524.8858586877504,
      "latitude_deg": -4.231044470051076e-05,
      "longitude_deg": 22.595090462068434,
      "height_km": 534.8566269155141,
      "semi_major_axis_km": 6911.4106157251,
      "eccentricity": 0.00121361,
      "inclination_deg": 97.5062,
      "raan_deg": 218.5717,
      "arg_perigee_deg": 280.2995,
      "mean_anomaly_deg": 79.6866,
      "mean_motion_rev_day": 15.10959134
    }
  ]
}